NORAD_CAT_ID,OBJECT_NAME,OBJECT_TYPE,EPOCH,MEAN_MOTION,ECCENTRICITY,INCLINATION,RA_OF_ASC_NODE,ARG_OF_PERICENTER,MEAN_ANOMALY,BSTAR,MEAN_MOTION_DOT,MEAN_MOTION_DDOT,TLE_LINE0,TLE_LINE1,TLE_LINE2,SEMIMAJOR_AXIS,PERIOD,APOGEE,PERIGEE,DECAYED
56496.0,STARLINK-5526,PAYLOAD,2024-01-31 00:08:52,14.98332175,0.0002755,69.9998,242.4724,268.73,91.3543,3.0227e-05,2.68e-06,0.0,0 STARLINK-5526,1 56496U 23064BA  24031.00616065  .00000268  00000-0  30227-4 0  9993,2 56496  69.9998 242.4724 0002755 268.7300  91.3543 14.98332175 41454,6950.186,96.107,573.966,570.136,0.0
56496.0,STARLINK-5526,PAYLOAD,2024-01-31 12:57:56,14.98332561,0.0002666,70.0003,241.1266,268.5732,91.5121,4.3453e-07,-8.8e-07,0.0,0 STARLINK-5526,1 56496U 23064BA  24031.54024112 -.00000088  00000-0  43453-6 0  9996,2 56496  70.0003 241.1266 0002666 268.5732  91.5121 14.98332561 41171,6950.185,96.107,573.903,570.197,0.0
56496.0,STARLINK-5526,PAYLOAD,2024-02-01 00:10:53,14.98332593,0.0002662,70.0002,239.9483,268.8569,91.2286,8.6546e-07,-8.3e-07,0.0,0 STARLINK-5526,1 56496U 23064BA  24032.00756019 -.00000083  00000-0  86546-6 0  9991,2 56496  70.0002 239.9483 0002662 268.8569  91.2286 14.98332593 41605,6950.185,96.107,573.9,570.2,0.0
56496.0,STARLINK-5526,PAYLOAD,2024-02-02 14:38:06,14.98331039,0.0002632,69.9995,235.9091,265.6887,94.3972,8.5464e-06,9e-08,0.0,0 STARLINK-5526,1 56496U 23064BA  24033.60979866  .00000009  00000-0  85464-5 0  9999,2 56496  69.9995 235.9091 0002632 265.6887  94.3972 14.98331039 41485,6950.19,96.107,573.884,570.225,0.0
56496.0,STARLINK-5526,PAYLOAD,2024-02-02 19:26:30,14.98331417,0.0002631,70.0004,235.4041,262.6608,97.4252,8.4748e-06,8e-08,0.0,0 STARLINK-5526,1 56496U 23064BA  24033.81007811  .00000008  00000-0  84748-5 0  9997,2 56496  70.0004 235.4041 0002631 262.6608  97.4252 14.98331417 41874,6950.189,96.107,573.882,570.225,0.0
56496.0,STARLINK-5526,PAYLOAD,2024-02-02 22:38:46,14.98331419,0.0002644,70.0002,235.0673,263.3005,96.7853,6.3156e-06,-1.8e-07,0.0,0 STARLINK-5526,1 56496U 23064BA  24033.94359799 -.00000018  00000-0  63156-5 0  9998,2 56496  70.0002 235.0673 0002644 263.3005  96.7853 14.98331419 41536,6950.189,96.107,573.891,570.216,0.0
56496.0,STARLINK-5526,PAYLOAD,2024-02-03 00:14:54,14.98331358,0.0002662,70.0002,234.899,264.9673,95.1182,4.5521e-06,-3.9e-07,0.0,0 STARLINK-5526,1 56496U 23064BA  24034.01035807 -.00000039  00000-0  45521-5 0  9997,2 56496  70.0002 234.8990 0002662 264.9673  95.1182 14.98331358 41544,6950.189,96.107,573.904,570.204,0.0
56496.0,STARLINK-5526,PAYLOAD,2024-02-03 19:28:26,14.98395902,0.0002785,70.0001,232.8787,262.0692,98.0151,0.00068295,8.079e-05,0.0,0 STARLINK-5526,1 56496U 23064BA  24034.81141369  .00008079  00000-0  68295-3 0  9998,2 56496  70.0001 232.8787 0002785 262.0692  98.0151 14.98395902 42028,6949.989,96.103,573.79,569.919,0.0
56496.0,STARLINK-5526,PAYLOAD,2024-02-03 21:04:38,14.98342072,0.0003391,69.9991,232.7093,273.0347,87.0424,4.4442e-05,4.37e-06,0.0,0 STARLINK-5526,1 56496U 23064BA  24034.87822032  .00000437  00000-0  44442-4 0  9996,2 56496  69.9991 232.7093 0003391 273.0347  87.0424 14.98342072 41676,6950.156,96.106,574.377,569.664,0.0
56496.0,STARLINK-5526,PAYLOAD,2024-02-03 22:40:46,14.9833269,0.0003228,69.9992,232.5414,273.2013,86.8777,-5.649e-05,-7.67e-06,0.0,0 STARLINK-5526,1 56496U 23064BA  24034.94498840 -.00000767  00000-0 -56490-4 0  9994,2 56496  69.9992 232.5414 0003228 273.2013  86.8777 14.98332690 42048,6950.185,96.107,574.293,569.806,0.0
56496.0,STARLINK-5526,PAYLOAD,2024-02-04 14:42:07,14.98329278,0.0003169,69.9992,230.8581,272.7788,87.3008,-9.0597e-05,-1.174e-05,0.0,0 STARLINK-5526,1 56496U 23064BA  24035.61259007 -.00001174  00000-0 -90597-4 0  9998,2 56496  69.9992 230.8581 0003169 272.7788  87.3008 14.98329278 41782,6950.195,96.107,574.263,569.858,0.0
56496.0,STARLINK-5526,PAYLOAD,2024-02-04 22:42:47,14.98330677,0.0003132,69.9997,230.0172,272.4191,87.661,-6.4217e-05,-8.59e-06,0.0,0 STARLINK-5526,1 56496U 23064BA  24035.94638790 -.00000859  00000-0 -64217-4 0  9993,2 56496  69.9997 230.0172 0003132 272.4191  87.6610 14.98330677 41833,6950.191,96.107,574.233,569.879,0.0
56496.0,STARLINK-5526,PAYLOAD,2024-02-05 14:44:08,14.98358964,0.0003091,70.0,228.3338,268.4241,91.6564,-0.00065274,-7.879e-05,0.0,0 STARLINK-5526,1 56496U 23064BA  24036.61398912 -.00007879  00000-0 -65274-3 0  9999,2 56496  70.0000 228.3338 0003091 268.4241  91.6564 14.98358964 41933,6950.103,96.105,574.117,569.82,0.0
56496.0,STARLINK-5526,PAYLOAD,2024-02-05 17:56:24,14.98358278,0.0003005,70.0001,227.9973,266.5699,93.5116,-0.00065386,-7.892e-05,0.0,0 STARLINK-5526,1 56496U 23064BA  24036.74750754 -.00007892  00000-0 -65386-3 0  9998,2 56496  70.0001 227.9973 0003005 266.5699  93.5116 14.98358278 42310,6950.105,96.105,574.059,569.882,0.0
56496.0,STARLINK-5526,PAYLOAD,2024-02-05 22:44:48,14.98355507,0.0003046,70.0001,227.4922,267.5098,92.5712,-0.00060874,-7.354e-05,0.0,0 STARLINK-5526,1 56496U 23064BA  24036.94778518 -.00007354  00000-0 -60874-3 0  9998,2 56496  70.0001 227.4922 0003046 267.5098  92.5712 14.98355507 41983,6950.114,96.105,574.096,569.862,0.0
56496.0,STARLINK-5526,PAYLOAD,2024-02-06 11:33:53,14.98322205,0.0003082,70.0002,226.1458,270.7695,89.3111,2.3004e-05,1.81e-06,0.0,0 STARLINK-5526,1 56496U 23064BA  24037.48187072  .00000181  00000-0  23004-4 0  9991,2 56496  70.0002 226.1458 0003082 270.7695  89.3111 14.98322205 42429,6950.217,96.107,574.224,569.94,0.0
56496.0,STARLINK-5526,PAYLOAD,2024-02-06 14:46:09,14.98322591,0.0003093,70.0001,225.8093,271.1407,88.9397,2.5157e-05,2.07e-06,0.0,0 STARLINK-5526,1 56496U 23064BA  24037.61539104  .00000207  00000-0  25157-4 0  9993,2 56496  70.0001 225.8093 0003093 271.1407  88.9397 14.98322591 42088,6950.216,96.107,574.231,569.931,0.0
56496.0,STARLINK-5526,PAYLOAD,2024-02-06 21:10:42,14.98324451,0.0003076,70.0003,225.1361,271.5754,88.5052,4.4871e-05,4.42e-06,0.0,0 STARLINK-5526,1 56496U 23064BA  24037.88243070  .00000442  00000-0  44871-4 0  9991,2 56496  70.0003 225.1361 0003076 271.5754  88.5052 14.98324451 42127,6950.21,96.107,574.213,569.937,0.0
56496.0,STARLINK-5526,PAYLOAD,2024-02-07 11:35:54,14.98322067,0.0003078,70.0002,223.6214,271.9151,88.1655,6.0553e-05,6.29e-06,0.0,0 STARLINK-5526,1 56496U 23064BA  24038.48327440  .00000629  00000-0  60553-4 0  9994,2 56496  70.0002 223.6214 0003078 271.9151  88.1655 14.98322067 42578,6950.217,96.108,574.222,569.943,0.0
56496.0,STARLINK-5526,PAYLOAD,2024-02-07 14:48:11,14.9832252,0.0003085,70.0002,223.2848,271.9135,88.167,6.2951e-05,6.58e-06,0.0,0 STARLINK-5526,1 56496U 23064BA  24038.61679468  .00000658  00000-0  62951-4 0  9995,2 56496  70.0002 223.2848 0003085 271.9135  88.1670 14.98322520 42231,6950.216,96.107,574.225,569.937,0.0
56496.0,STARLINK-5526,PAYLOAD,2024-02-07 21:12:43,14.98323823,0.000306,70.0004,222.6117,271.2034,88.8775,7.0947e-05,7.53e-06,0.0,0 STARLINK-5526,1 56496U 23064BA  24038.88383475  .00000753  00000-0  70947-4 0  9994,2 56496  70.0004 222.6117 0003060 271.2034  88.8775 14.98323823 42273,6950.212,96.107,574.204,569.95,0.0
56496.0,STARLINK-5526,PAYLOAD,2024-02-08 11:37:56,14.98326944,0.0003001,70.0006,221.097,269.8777,90.2039,2.5564e-05,2.12e-06,0.0,0 STARLINK-5526,1 56496U 23064BA  24039.48467614  .00000212  00000-0  25564-4 0  9994,2 56496  70.0006 221.0970 0003001 269.8777  90.2039 14.98326944 42724,6950.202,96.107,574.153,569.982,0.0
56496.0,STARLINK-5526,PAYLOAD,2024-02-08 14:50:12,14.98327037,0.0003004,70.0006,220.7604,269.7898,90.2917,2.5461e-05,2.11e-06,0.0,0 STARLINK-5526,1 56496U 23064BA  24039.61819628  .00000211  00000-0  25461-4 0  9990,2 56496  70.0006 220.7604 0003004 269.7898  90.2917 14.98327037 42381,6950.202,96.107,574.155,569.979,0.0
56496.0,STARLINK-5526,PAYLOAD,2024-02-08 21:14:44,14.98327208,0.0003007,70.0007,220.0873,269.7034,90.378,2.524e-05,2.08e-06,0.0,0 STARLINK-5526,1 56496U 23064BA  24039.88523667  .00000208  00000-0  25240-4 0  9995,2 56496  70.0007 220.0873 0003007 269.7034  90.3780 14.98327208 42422,6950.202,96.107,574.156,569.977,0.0
56496.0,STARLINK-5526,PAYLOAD,2024-02-09 11:39:56,14.98331054,0.0003055,70.0007,218.5725,269.566,90.5149,5.1487e-05,5.21e-06,0.0,0 STARLINK-5526,1 56496U 23064BA  24040.48607380  .00000521  00000-0  51487-4 0  9998,2 56496  70.0007 218.5725 0003055 269.5660  90.5149 14.98331054 42870,6950.19,96.107,574.178,569.931,0.0
56496.0,STARLINK-5526,PAYLOAD,2024-02-09 13:16:04,14.98331248,0.0003057,70.0007,218.4042,269.4822,90.5987,5.2682e-05,5.36e-06,0.0,0 STARLINK-5526,1 56496U 23064BA  24040.55283361  .00000536  00000-0  52682-4 0  9999,2 56496  70.0007 218.4042 0003057 269.4822  90.5987 14.98331248 42529,6950.189,96.107,574.179,569.929,0.0
56496.0,STARLINK-5526,PAYLOAD,2024-02-10 11:41:57,14.98329967,0.0003008,70.001,216.0481,268.9982,91.0832,2.651e-05,2.23e-06,0.0,0 STARLINK-5526,1 56496U 23064BA  24041.48747440  .00000223  00000-0  26510-4 0  9999,2 56496  70.0010 216.0481 0003008 268.9982  91.0832 14.98329967 43027,6950.193,96.107,574.149,569.967,0.0
56496.0,STARLINK-5526,PAYLOAD,2024-02-10 13:18:05,14.98330387,0.0003011,70.001,215.8797,269.0091,91.0723,3.2053e-05,2.89e-06,0.0,0 STARLINK-5526,1 56496U 23064BA  24041.55423401  .00000289  00000-0  32053-4 0  9996,2 56496  70.0010 215.8797 0003011 269.0091  91.0723 14.98330387 42678,6950.192,96.107,574.149,569.964,0.0
56496.0,STARLINK-5526,PAYLOAD,2024-02-10 21:18:46,14.98331022,0.0002961,70.0011,215.0381,266.9611,93.1209,4.0806e-05,3.94e-06,0.0,0 STARLINK-5526,1 56496U 23064BA  24041.88803303  .00000394  00000-0  40806-4 0  9997,2 56496  70.0011 215.0381 0002961 266.9611  93.1209 14.98331022 42722,6950.19,96.107,574.113,569.997,0.0
56496.0,STARLINK-5526,PAYLOAD,2024-02-11 11:43:58,14.9833342,0.0002903,70.0012,213.5234,265.6172,94.4655,3.8492e-06,-4.7e-07,0.0,0 STARLINK-5526,1 56496U 23064BA  24042.48887151 -.00000047  00000-0  38492-5 0  9992,2 56496  70.0012 213.5234 0002903 265.6172  94.4655 14.98333420 43170,6950.182,96.107,574.065,570.03,0.0
